NORAD_CAT_ID,OBJECT_NAME,OBJECT_TYPE,EPOCH,MEAN_MOTION,ECCENTRICITY,INCLINATION,RA_OF_ASC_NODE,ARG_OF_PERICENTER,MEAN_ANOMALY,BSTAR,MEAN_MOTION_DOT,MEAN_MOTION_DDOT,TLE_LINE0,TLE_LINE1,TLE_LINE2,SEMIMAJOR_AXIS,PERIOD,APOGEE,PERIGEE,DECAYED
52501.0,STARLINK-3907,PAYLOAD,2023-09-26 13:21:17,15.08837998,0.0001191,53.2159,107.3272,94.9454,265.1674,4.8652e-05,4.87e-06,0.0,0 STARLINK-3907,1 52501U 22049BC  23269.55645345  .00000487  00000-0  48652-4 0  9997,2 52501  53.2159 107.3272 0001191  94.9454 265.1674 15.08837998 77260,6917.887,95.438,540.575,538.928,0.0
52501.0,STARLINK-3907,PAYLOAD,2023-09-26 19:42:49,15.08843528,0.0001422,53.215,106.1395,88.144,271.9715,0.00013237,1.82e-05,0.0,0 STARLINK-3907,1 52501U 22049BC  23269.82141200  .00001820  00000-0  13237-3 0  9990,2 52501  53.2150 106.1395 0001422  88.1440 271.9715 15.08843528 77460,6917.87,95.437,540.718,538.751,0.0
52501.0,STARLINK-3907,PAYLOAD,2023-09-27 19:33:37,15.08832849,0.0001446,53.2153,101.6791,88.6244,271.4913,-8.0099e-05,-1.562e-05,0.0,0 STARLINK-3907,1 52501U 22049BC  23270.81502055 -.00001562  00000-0 -80099-4 0  9996,2 52501  53.2153 101.6791 0001446  88.6244 271.4913 15.08832849 77612,6917.902,95.438,540.768,538.767,0.0
52501.0,STARLINK-3907,PAYLOAD,2023-09-28 13:02:52,15.0883917,0.0001542,53.2167,98.4066,108.3674,251.7485,9.7704e-05,1.267e-05,0.0,0 STARLINK-3907,1 52501U 22049BC  23271.54365912  .00001267  00000-0  97704-4 0  9997,2 52501  53.2167  98.4066 0001542 108.3674 251.7485 15.08839170 77720,6917.883,95.438,540.815,538.681,0.0
52501.0,STARLINK-3907,PAYLOAD,2023-09-28 19:24:24,15.0884365,0.0001554,53.2165,97.2186,99.4808,260.636,0.00019482,2.814e-05,0.0,0 STARLINK-3907,1 52501U 22049BC  23271.80861754  .00002814  00000-0  19482-3 0  9996,2 52501  53.2165  97.2186 0001554  99.4808 260.6360 15.08843650 77606,6917.869,95.437,540.809,538.659,0.0
52501.0,STARLINK-3907,PAYLOAD,2023-09-29 17:39:48,15.08845316,0.0001336,53.2157,93.0548,93.5343,266.5802,0.00019802,2.865e-05,0.0,0 STARLINK-3907,1 52501U 22049BC  23272.73597641  .00002865  00000-0  19802-3 0  9992,2 52501  53.2157  93.0548 0001336  93.5343 266.5802 15.08845316 77900,6917.864,95.437,540.653,538.805,0.0
52501.0,STARLINK-3907,PAYLOAD,2023-09-29 19:15:11,15.08848365,0.0001355,53.2157,92.7571,95.3932,264.7214,0.00024106,3.551e-05,0.0,0 STARLINK-3907,1 52501U 22049BC  23272.80221472  .00003551  00000-0  24106-3 0  9992,2 52501  53.2157  92.7571 0001355  95.3932 264.7214 15.08848365 77754,6917.855,95.437,540.657,538.782,0.0
52501.0,STARLINK-3907,PAYLOAD,2023-09-30 19:05:59,15.0884018,0.0001246,53.2171,88.297,84.0743,276.0391,9.4387e-06,-1.38e-06,0.0,0 STARLINK-3907,1 52501U 22049BC  23273.79582224 -.00000138  00000-0  94387-5 0  9995,2 52501  53.2171  88.2970 0001246  84.0743 276.0391 15.08840180 78061,6917.88,95.438,540.607,538.883,0.0
52501.0,STARLINK-3907,PAYLOAD,2023-10-01 10:59:49,15.08846794,0.0001252,53.2173,85.3224,88.1926,271.921,3.1927e-05,2.2e-06,0.0,0 STARLINK-3907,1 52501U 22049BC  23274.45821759  .00000220  00000-0  31927-4 0  9999,2 52501  53.2173  85.3224 0001252  88.1926 271.9210 15.08846794 78003,6917.86,95.437,540.591,538.859,0.0
52501.0,STARLINK-3907,PAYLOAD,2023-10-01 18:56:45,15.08844313,0.0001243,53.216,83.8354,95.1841,264.9293,0.00035698,5.399e-05,0.0,0 STARLINK-3907,1 52501U 22049BC  23274.78941450  .00005399  00000-0  35698-3 0  9996,2 52501  53.2160  83.8354 0001243  95.1841 264.9293 15.08844313 78211,6917.867,95.437,540.592,538.872,0.0
52501.0,STARLINK-3907,PAYLOAD,2023-10-02 10:50:37,15.08839307,0.0001947,53.2161,80.8619,82.0307,278.0906,9.7982e-05,1.272e-05,0.0,0 STARLINK-3907,1 52501U 22049BC  23275.45181955  .00001272  00000-0  97982-4 0  9998,2 52501  53.2161  80.8619 0001947  82.0307 278.0906 15.08839307 78311,6917.883,95.438,541.094,538.401,0.0
52501.0,STARLINK-3907,PAYLOAD,2023-10-02 18:47:33,15.08835732,0.0001571,53.2159,79.376,82.2046,277.9124,3.5454e-05,2.76e-06,0.0,0 STARLINK-3907,1 52501U 22049BC  23275.78302125  .00000276  00000-0  35454-4 0  9997,2 52501  53.2159  79.3760 0001571  82.2046 277.9124 15.08835732 78209,6917.893,95.438,540.845,538.672,0.0
52501.0,STARLINK-3907,PAYLOAD,2023-10-03 10:41:24,15.08840315,0.0001577,53.216,76.4027,82.1205,277.9966,4.3925e-05,4.11e-06,0.0,0 STARLINK-3907,1 52501U 22049BC  23276.44541977  .00000411  00000-0  43925-4 0  9994,2 52501  53.2160  76.4027 0001577  82.1205 277.9966 15.08840315 78305,6917.879,95.438,540.835,538.653,0.0
52501.0,STARLINK-3907,PAYLOAD,2023-10-03 17:02:56,15.08849388,0.0001459,53.2167,75.2115,90.8249,269.291,5.2958e-05,5.55e-06,0.0,0 STARLINK-3907,1 52501U 22049BC  23276.71037488  .00000555  00000-0  52958-4 0  9996,2 52501  53.2167  75.2115 0001459  90.8249 269.2910 15.08849388 78504,6917.852,95.437,540.726,538.707,0.0
52501.0,STARLINK-3907,PAYLOAD,2023-10-04 13:42:57,15.08842719,0.0001553,53.2157,71.3465,87.366,272.751,0.00019897,2.88e-05,0.0,0 STARLINK-3907,1 52501U 22049BC  23277.57149925  .00002880  00000-0  19897-3 0  9998,2 52501  53.2157  71.3465 0001553  87.3660 272.7510 15.08842719 78473,6917.872,95.437,540.811,538.663,0.0
52501.0,STARLINK-3907,PAYLOAD,2023-10-04 16:53:43,15.08846459,0.0001454,53.2165,70.75,95.5424,264.5734,0.00026475,3.929e-05,0.0,0 STARLINK-3907,1 52501U 22049BC  23277.70397647  .00003929  00000-0  26475-3 0  9994,2 52501  53.2165  70.7500 0001454  95.5424 264.5734 15.08846459 78656,6917.861,95.437,540.732,538.72,0.0
52501.0,STARLINK-3907,PAYLOAD,2023-10-04 20:04:29,15.0885134,0.000155,53.2164,70.1552,92.6897,267.4272,0.00023245,3.415e-05,0.0,0 STARLINK-3907,1 52501U 22049BC  23277.83645375  .00003415  00000-0  23245-3 0  9994,2 52501  53.2164  70.1552 0001550  92.6897 267.4272 15.08851340 78514,6917.846,95.437,540.783,538.638,0.0
52501.0,STARLINK-3907,PAYLOAD,2023-10-05 13:33:44,15.08838658,0.0001492,53.216,66.8859,105.0081,255.1077,5.0327e-05,5.13e-06,0.0,0 STARLINK-3907,1 52501U 22049BC  23278.56510026  .00000513  00000-0  50327-4 0  9997,2 52501  53.2160  66.8859 0001492 105.0081 255.1077 15.08838658 78627,6917.884,95.438,540.782,538.717,0.0
52501.0,STARLINK-3907,PAYLOAD,2023-10-05 16:44:30,15.08844777,0.0001295,53.2164,66.2914,85.4743,274.6397,0.00015553,2.189e-05,0.0,0 STARLINK-3907,1 52501U 22049BC  23278.69757799  .00002189  00000-0  15553-3 0  9993,2 52501  53.2164  66.2914 0001295  85.4743 274.6397 15.08844777 78804,6917.866,95.437,540.627,538.835,0.0
52501.0,STARLINK-3907,PAYLOAD,2023-10-06 10:13:44,15.08857582,0.0001241,53.2176,63.019,84.9289,275.1844,0.00023209,3.409e-05,0.0,0 STARLINK-3907,1 52501U 22049BC  23279.42620914  .00003409  00000-0  23209-3 0  9996,2 52501  53.2176  63.0190 0001241  84.9289 275.1844 15.08857582 78911,6917.827,95.436,540.55,538.833,0.0
52501.0,STARLINK-3907,PAYLOAD,2023-10-06 13:24:31,15.0882013,0.0001359,53.2175,62.4241,89.0471,271.0677,-0.00048596,-8.009e-05,0.0,0 STARLINK-3907,1 52501U 22049BC  23279.55869865 -.00008009  00000-0 -48596-3 0  9999,2 52501  53.2175  62.4241 0001359  89.0471 271.0677 15.08820130 78771,6917.941,95.439,540.746,538.866,0.0
52501.0,STARLINK-3907,PAYLOAD,2023-10-06 16:35:17,15.08822087,0.0001286,53.217,61.8307,86.5911,273.5228,-0.00040291,-6.691e-05,0.0,0 STARLINK-3907,1 52501U 22049BC  23279.69117931 -.00006691  00000-0 -40291-3 0  9993,2 52501  53.2170  61.8307 0001286  86.5911 273.5228 15.08822087 78954,6917.935,95.439,540.69,538.91,0.0
52501.0,STARLINK-3907,PAYLOAD,2023-10-07 10:04:32,15.08846627,0.0001228,53.2169,58.5599,88.9069,271.2064,-0.0001672,-2.948e-05,0.0,0 STARLINK-3907,1 52501U 22049BC  23280.41981580 -.00002948  00000-0 -16720-3 0  9995,2 52501  53.2169  58.5599 0001228  88.9069 271.2064 15.08846627 79066,6917.86,95.437,540.575,538.876,0.0
52501.0,STARLINK-3907,PAYLOAD,2023-10-07 13:15:18,15.08844885,0.000132,53.217,57.9654,84.3552,275.759,0.00036875,5.586e-05,0.0,0 STARLINK-3907,1 52501U 22049BC  23280.55229971  .00005586  00000-0  36875-3 0  9991,2 52501  53.2170  57.9654 0001320  84.3552 275.7590 15.08844885 78924,6917.865,95.437,540.644,538.817,0.0
52501.0,STARLINK-3907,PAYLOAD,2023-10-07 16:26:05,15.08855761,0.0001287,53.2171,57.3709,84.4403,275.6736,0.0015584,0.00024612,0.0,0 STARLINK-3907,1 52501U 22049BC  23280.68478313  .00024612  00000-0  15584-2 0  9995,2 52501  53.2171  57.3709 0001287  84.4403 275.6736 15.08855761 78946,6917.832,95.437,540.588,538.807,0.0
52501.0,STARLINK-3907,PAYLOAD,2023-10-08 13:06:06,15.08838326,0.0001609,53.2178,53.5038,84.1479,275.9696,0.00089049,0.00013912,0.0,0 STARLINK-3907,1 52501U 22049BC  23281.54590999  .00013912  00000-0  89049-3 0  9995,2 52501  53.2178  53.5038 0001609  84.1479 275.9696 15.08838326 79075,6917.886,95.438,540.864,538.637,0.0
52501.0,STARLINK-3907,PAYLOAD,2023-10-08 17:52:15,15.0885276,0.0001574,53.2168,52.6137,86.6144,273.5028,0.0014639,0.00023095,0.0,0 STARLINK-3907,1 52501U 22049BC  23281.74462877  .00023095  00000-0  14639-2 0  9995,2 52501  53.2168  52.6137 0001574  86.6144 273.5028 15.08852760 79263,6917.841,95.437,540.795,538.618,0.0
52501.0,STARLINK-3907,PAYLOAD,2023-10-09 12:56:53,15.08854108,0.0002512,53.2172,49.0466,140.1307,219.987,0.0013484,0.00021246,0.0,0 STARLINK-3907,1 52501U 22049BC  23282.53950646  .00021246  00000-0  13484-2 0  9992,2 52501  53.2172  49.0466 0002512 140.1307 219.9870 15.08854108 79226,6917.837,95.437,541.44,537.965,0.0
52501.0,STARLINK-3907,PAYLOAD,2023-10-09 17:43:02,15.08869586,0.000158,53.2172,48.1528,92.9682,267.1491,0.0018982,0.00030076,0.0,0 STARLINK-3907,1 52501U 22049BC  23282.73822659  .00030076  00000-0  18982-2 0  9995,2 52501  53.2172  48.1528 0001580  92.9682 267.1491 15.08869586 79410,6917.79,95.436,540.748,538.562,0.0
52501.0,STARLINK-3907,PAYLOAD,2023-10-10 12:47:40,15.08857589,0.000255,53.2169,44.5839,89.1396,270.9888,0.0010794,0.00016941,0.0,0 STARLINK-3907,1 52501U 22049BC  23283.53310593  .00016941  00000-0  10794-2 0  9991,2 52501  53.2169  44.5839 0002550  89.1396 270.9888 15.08857589 79534,6917.827,95.436,541.456,537.928,0.0
